[{"OBJECT_NAME":"ONEWEB-0186","OBJECT_ID":"2021-031V","EPOCH":"2026-01-05T07:13:44.436000","MEAN_MOTION":13.14501925,"ECCENTRICITY":0.00016496,"INCLINATION":87.9018,"RA_OF_ASC_NODE":322.1474,"ARG_OF_PERICENTER":82.6385,"MEAN_ANOMALY":277.4932,"EPHEMERIS_TYPE":0,"CLASSIFICATION_TYPE":"U","NORAD_CAT_ID":48229,"ELEMENT_SET_NO":999,"REV_AT_EPOCH":22698,"BSTAR":7.9312903e-5,"MEAN_MOTION_DOT":4.2e-7,"MEAN_MOTION_DDOT":0},{"OBJECT_NAME":"ONEWEB-0181","OBJECT_ID":"2021-031W","EPOCH":"2026-01-05T06:41:46.070016","MEAN_MOTION":13.14501582,"ECCENTRICITY":0.00015692,"INCLINATION":87.9007,"RA_OF_ASC_NODE":322.2024,"ARG_OF_PERICENTER":82.0082,"MEAN_ANOMALY":278.1226,"EPHEMERIS_TYPE":0,"CLASSIFICATION_TYPE":"U","NORAD_CAT_ID":48230,"ELEMENT_SET_NO":999,"REV_AT_EPOCH":22683,"BSTAR":-0.0002626184,"MEAN_MOTION_DOT":-8.5e-7,"MEAN_MOTION_DDOT":0},{"OBJECT_NAME":"ONEWEB-0188","OBJECT_ID":"2021-031X","EPOCH":"2026-01-05T05:46:57.502848","MEAN_MOTION":13.14502738,"ECCENTRICITY":0.00017464,"INCLINATION":87.9007,"RA_OF_ASC_NODE":322.207,"ARG_OF_PERICENTER":81.6497,"MEAN_ANOMALY":278.4831,"EPHEMERIS_TYPE":0,"CLASSIFICATION_TYPE":"U","NORAD_CAT_ID":48231,"ELEMENT_SET_NO":999,"REV_AT_EPOCH":22673,"BSTAR":0.00090422654,"MEAN_MOTION_DOT":3.48e-6,"MEAN_MOTION_DDOT":0},{"OBJECT_NAME":"ONEWEB-0220","OBJECT_ID":"2021-031Y","EPOCH":"2026-01-05T06:44:02.531040","MEAN_MOTION":13.14502316,"ECCENTRICITY":0.00016521,"INCLINATION":87.9022,"RA_OF_ASC_NODE":322.1502,"ARG_OF_PERICENTER":88.174,"MEAN_ANOMALY":271.9579,"EPHEMERIS_TYPE":0,"CLASSIFICATION_TYPE":"U","NORAD_CAT_ID":48232,"ELEMENT_SET_NO":999,"REV_AT_EPOCH":22700,"BSTAR":-0.00016107933,"MEAN_MOTION_DOT":-4.7e-7,"MEAN_MOTION_DDOT":0},{"OBJECT_NAME":"ONEWEB-0165","OBJECT_ID":"2021-031Z","EPOCH":"2026-01-05T07:25:09.649344","MEAN_MOTION":13.14503033,"ECCENTRICITY":0.00013643,"INCLINATION":87.9004,"RA_OF_ASC_NODE":322.1682,"ARG_OF_PERICENTER":77.9123,"MEAN_ANOMALY":282.2159,"EPHEMERIS_TYPE":0,"CLASSIFICATION_TYPE":"U","NORAD_CAT_ID":48233,"ELEMENT_SET_NO":999,"REV_AT_EPOCH":22696,"BSTAR":0.00045116685,"MEAN_MOTION_DOT":1.8e-6,"MEAN_MOTION_DDOT":0},{"OBJECT_NAME":"ONEWEB-0199","OBJECT_ID":"2021-031AA","EPOCH":"2026-01-05T07:02:19.696128","MEAN_MOTION":13.14501283,"ECCENTRICITY":0.00018426,"INCLINATION":87.9017,"RA_OF_ASC_NODE":322.1485,"ARG_OF_PERICENTER":77.2947,"MEAN_ANOMALY":282.8389,"EPHEMERIS_TYPE":0,"CLASSIFICATION_TYPE":"U","NORAD_CAT_ID":48234,"ELEMENT_SET_NO":999,"REV_AT_EPOCH":22686,"BSTAR":-0.00069667767,"MEAN_MOTION_DOT":-2.45e-6,"MEAN_MOTION_DDOT":0},{"OBJECT_NAME":"ONEWEB-0203","OBJECT_ID":"2021-031AB","EPOCH":"2026-01-05T06:48:36.921024","MEAN_MOTION":13.14502046,"ECCENTRICITY":0.00016418,"INCLINATION":87.9014,"RA_OF_ASC_NODE":322.15,"ARG_OF_PERICENTER":72.5802,"MEAN_ANOMALY":287.5507,"EPHEMERIS_TYPE":0,"CLASSIFICATION_TYPE":"U","NORAD_CAT_ID":48235,"ELEMENT_SET_NO":999,"REV_AT_EPOCH":22687,"BSTAR":-0.00029845654,"MEAN_MOTION_DOT":-9.8e-7,"MEAN_MOTION_DDOT":0},{"OBJECT_NAME":"ONEWEB-0197","OBJECT_ID":"2021-031AC","EPOCH":"2026-01-05T06:11:52.874304","MEAN_MOTION":13.14501365,"ECCENTRICITY":0.00019555,"INCLINATION":87.9016,"RA_OF_ASC_NODE":322.1544,"ARG_OF_PERICENTER":87.0729,"MEAN_ANOMALY":273.0624,"EPHEMERIS_TYPE":0,"CLASSIFICATION_TYPE":"U","NORAD_CAT_ID":48236,"ELEMENT_SET_NO":999,"REV_AT_EPOCH":22678,"BSTAR":0.00052690879,"MEAN_MOTION_DOT":2.08e-6,"MEAN_MOTION_DDOT":0},{"OBJECT_NAME":"ONEWEB-0194","OBJECT_ID":"2021-031AD","EPOCH":"2026-01-05T05:42:23.753088","MEAN_MOTION":13.14501137,"ECCENTRICITY":0.00018361,"INCLINATION":87.9014,"RA_OF_ASC_NODE":322.1756,"ARG_OF_PERICENTER":73.3004,"MEAN_ANOMALY":286.8327,"EPHEMERIS_TYPE":0,"CLASSIFICATION_TYPE":"U","NORAD_CAT_ID":48237,"ELEMENT_SET_NO":999,"REV_AT_EPOCH":22695,"BSTAR":0.00037853538,"MEAN_MOTION_DOT":1.53e-6,"MEAN_MOTION_DDOT":0},{"OBJECT_NAME":"ONEWEB-0193","OBJECT_ID":"2021-031AE","EPOCH":"2026-01-05T06:05:13.963776","MEAN_MOTION":13.14501072,"ECCENTRICITY":0.00020069,"INCLINATION":87.9011,"RA_OF_ASC_NODE":322.1665,"ARG_OF_PERICENTER":69.4043,"MEAN_ANOMALY":290.7302,"EPHEMERIS_TYPE":0,"CLASSIFICATION_TYPE":"U","NORAD_CAT_ID":48238,"ELEMENT_SET_NO":999,"REV_AT_EPOCH":22690,"BSTAR":0.0005867304,"MEAN_MOTION_DOT":2.3e-6,"MEAN_MOTION_DDOT":0},{"OBJECT_NAME":"ONEWEB-0191","OBJECT_ID":"2021-031AF","EPOCH":"2026-01-05T06:21:14.139072","MEAN_MOTION":13.14496081,"ECCENTRICITY":0.00017991,"INCLINATION":87.9019,"RA_OF_ASC_NODE":322.1559,"ARG_OF_PERICENTER":81.8516,"MEAN_ANOMALY":278.2817,"EPHEMERIS_TYPE":0,"CLASSIFICATION_TYPE":"U","NORAD_CAT_ID":48239,"ELEMENT_SET_NO":999,"REV_AT_EPOCH":22676,"BSTAR":0.0034486968,"MEAN_MOTION_DOT":1.291e-5,"MEAN_MOTION_DDOT":0},{"OBJECT_NAME":"ONEWEB-0195","OBJECT_ID":"2021-031AG","EPOCH":"2026-01-05T07:37:42.657312","MEAN_MOTION":13.14504133,"ECCENTRICITY":0.00013129,"INCLINATION":87.9025,"RA_OF_ASC_NODE":322.1432,"ARG_OF_PERICENTER":79.9199,"MEAN_ANOMALY":280.2079,"EPHEMERIS_TYPE":0,"CLASSIFICATION_TYPE":"U","NORAD_CAT_ID":48240,"ELEMENT_SET_NO":999,"REV_AT_EPOCH":22675,"BSTAR":0.00079788836,"MEAN_MOTION_DOT":3.09e-6,"MEAN_MOTION_DDOT":0},{"OBJECT_NAME":"ONEWEB-0201","OBJECT_ID":"2021-031AH","EPOCH":"2026-01-05T07:20:47.653440","MEAN_MOTION":13.14503829,"ECCENTRICITY":0.00016951,"INCLINATION":87.9004,"RA_OF_ASC_NODE":322.1803,"ARG_OF_PERICENTER":90.2405,"MEAN_ANOMALY":269.8919,"EPHEMERIS_TYPE":0,"CLASSIFICATION_TYPE":"U","NORAD_CAT_ID":48241,"ELEMENT_SET_NO":999,"REV_AT_EPOCH":22698,"BSTAR":0.00016685868,"MEAN_MOTION_DOT":7.5e-7,"MEAN_MOTION_DDOT":0},{"OBJECT_NAME":"ONEWEB-0207","OBJECT_ID":"2021-031AJ","EPOCH":"2026-01-05T06:52:01.698528","MEAN_MOTION":13.1450392,"ECCENTRICITY":0.00017921,"INCLINATION":87.902,"RA_OF_ASC_NODE":322.1498,"ARG_OF_PERICENTER":87.6508,"MEAN_ANOMALY":272.4827,"EPHEMERIS_TYPE":0,"CLASSIFICATION_TYPE":"U","NORAD_CAT_ID":48242,"ELEMENT_SET_NO":999,"REV_AT_EPOCH":22689,"BSTAR":-0.00048089721,"MEAN_MOTION_DOT":-1.66e-6,"MEAN_MOTION_DDOT":0},{"OBJECT_NAME":"ONEWEB-0208","OBJECT_ID":"2021-031AK","EPOCH":"2026-01-05T06:25:47.112960","MEAN_MOTION":13.14502592,"ECCENTRICITY":0.00014279,"INCLINATION":87.9016,"RA_OF_ASC_NODE":322.1669,"ARG_OF_PERICENTER":78.6683,"MEAN_ANOMALY":281.4607,"EPHEMERIS_TYPE":0,"CLASSIFICATION_TYPE":"U","NORAD_CAT_ID":48243,"ELEMENT_SET_NO":999,"REV_AT_EPOCH":22690,"BSTAR":3.8272369e-5,"MEAN_MOTION_DOT":2.7e-7,"MEAN_MOTION_DDOT":0},{"OBJECT_NAME":"ONEWEB-0200","OBJECT_ID":"2021-031AL","EPOCH":"2026-01-05T07:22:52.378752","MEAN_MOTION":13.14503331,"ECCENTRICITY":0.00016192,"INCLINATION":87.9014,"RA_OF_ASC_NODE":322.1483,"ARG_OF_PERICENTER":82.821,"MEAN_ANOMALY":277.3104,"EPHEMERIS_TYPE":0,"CLASSIFICATION_TYPE":"U","NORAD_CAT_ID":48244,"ELEMENT_SET_NO":999,"REV_AT_EPOCH":22683,"BSTAR":0.00023506885,"MEAN_MOTION_DOT":1.0e-6,"MEAN_MOTION_DDOT":0}]
