ONEWEB-0186             
1 48229U 21031V   26005.30120875  .00000042  00000+0  79313-4 0  9993
2 48229  87.9018 322.1474 0001649  82.6385 277.4932 13.14501925226987
ONEWEB-0181             
1 48230U 21031W   26005.27900544 -.00000085  00000+0 -26262-3 0  9993
2 48230  87.9007 322.2024 0001569  82.0082 278.1226 13.14501582226835
ONEWEB-0188             
1 48231U 21031X   26005.24094332  .00000348  00000+0  90423-3 0  9990
2 48231  87.9007 322.2070 0001746  81.6497 278.4831 13.14502738226737
ONEWEB-0220             
1 48232U 21031Y   26005.28058485 -.00000047  00000+0 -16108-3 0  9990
2 48232  87.9022 322.1502 0001652  88.1740 271.9579 13.14502316227003
ONEWEB-0165             
1 48233U 21031Z   26005.30913946  .00000180  00000+0  45117-3 0  9994
2 48233  87.9004 322.1682 0001364  77.9123 282.2159 13.14503033226964
ONEWEB-0199             
1 48234U 21031AA  26005.29328352 -.00000245  00000+0 -69668-3 0  9995
2 48234  87.9017 322.1485 0001842  77.2947 282.8389 13.14501283226863
ONEWEB-0203             
1 48235U 21031AB  26005.28376066 -.00000098  00000+0 -29846-3 0  9990
2 48235  87.9014 322.1500 0001641  72.5802 287.5507 13.14502046226877
ONEWEB-0197             
1 48236U 21031AC  26005.25825086  .00000208  00000+0  52691-3 0  9994
2 48236  87.9016 322.1544 0001955  87.0729 273.0624 13.14501365226788
ONEWEB-0194             
1 48237U 21031AD  26005.23777492  .00000153  00000+0  37854-3 0  9993
2 48237  87.9014 322.1756 0001836  73.3004 286.8327 13.14501137226952
ONEWEB-0193             
1 48238U 21031AE  26005.25363384  .00000230  00000+0  58673-3 0  9995
2 48238  87.9011 322.1665 0002006  69.4043 290.7302 13.14501072226908
ONEWEB-0191             
1 48239U 21031AF  26005.26474698  .00001291  00000+0  34487-2 0  9992
2 48239  87.9019 322.1559 0001799  81.8516 278.2817 13.14496081226769
ONEWEB-0195             
1 48240U 21031AG  26005.31785483  .00000309  00000+0  79789-3 0  9991
2 48240  87.9025 322.1432 0001312  79.9199 280.2079 13.14504133226754
ONEWEB-0201             
1 48241U 21031AH  26005.30610710  .00000075  00000+0  16686-3 0  9998
2 48241  87.9004 322.1803 0001695  90.2405 269.8919 13.14503829226986
ONEWEB-0207             
1 48242U 21031AJ  26005.28613077 -.00000166  00000+0 -48090-3 0  9992
2 48242  87.9020 322.1498 0001792  87.6508 272.4827 13.14503920226897
ONEWEB-0208             
1 48243U 21031AK  26005.26790640  .00000027  00000+0  38272-4 0  9999
2 48243  87.9016 322.1669 0001427  78.6683 281.4607 13.14502592226904
ONEWEB-0200             
1 48244U 21031AL  26005.30755068  .00000100  00000+0  23507-3 0  9996
2 48244  87.9014 322.1483 0001619  82.8210 277.3104 13.14503331226833
